{"fetched_at":"2026-07-06T18:35:17.756Z","source":"https://celestrak.org/NORAD/elements/gp.php?GROUP=spire&FORMAT=JSON","constellation":"spire","records":[{"OBJECT_NAME":"LEMUR-2-VALHALLA","OBJECT_ID":"2024-022B","EPOCH":"2026-07-06T02:44:05.003520","CLASSIFICATION_TYPE":"U","MEAN_MOTION":15.40286731,"ECCENTRICITY":0.00101105,"INCLINATION":97.4091,"RA_OF_ASC_NODE":37.3384,"ARG_OF_PERICENTER":54.0939,"MEAN_ANOMALY":306.1244,"EPHEMERIS_TYPE":0,"NORAD_CAT_ID":58900,"ELEMENT_SET_NO":999,"REV_AT_EPOCH":13518,"BSTAR":0.00041936629,"MEAN_MOTION_DOT":0.0001685,"MEAN_MOTION_DDOT":0},{"OBJECT_NAME":"LEMUR-2-CAEL","OBJECT_ID":"2024-022E","EPOCH":"2026-07-06T04:08:19.595328","CLASSIFICATION_TYPE":"U","MEAN_MOTION":15.41636766,"ECCENTRICITY":0.00080829,"INCLINATION":97.4074,"RA_OF_ASC_NODE":38.3674,"ARG_OF_PERICENTER":40.2046,"MEAN_ANOMALY":319.9797,"EPHEMERIS_TYPE":0,"NORAD_CAT_ID":58903,"ELEMENT_SET_NO":999,"REV_AT_EPOCH":13526,"BSTAR":0.00042628852,"MEAN_MOTION_DOT":0.00017904,"MEAN_MOTION_DDOT":0},{"OBJECT_NAME":"LEMUR-2-JOHNNYTRUONG","OBJECT_ID":"2024-043BA","EPOCH":"2026-07-05T22:19:55.424640","CLASSIFICATION_TYPE":"U","MEAN_MOTION":15.61990755,"ECCENTRICITY":0.00044488,"INCLINATION":97.5395,"RA_OF_ASC_NODE":339.8154,"ARG_OF_PERICENTER":120.955,"MEAN_ANOMALY":239.2145,"EPHEMERIS_TYPE":0,"NORAD_CAT_ID":59146,"ELEMENT_SET_NO":999,"REV_AT_EPOCH":13096,"BSTAR":0.00050314625,"MEAN_MOTION_DOT":0.00043923,"MEAN_MOTION_DDOT":0},{"OBJECT_NAME":"LEMUR-2-TOMATOKECHUP","OBJECT_ID":"2024-149D","EPOCH":"2026-07-06T04:37:08.314176","CLASSIFICATION_TYPE":"U","MEAN_MOTION":15.36452734,"ECCENTRICITY":0.00028765,"INCLINATION":97.379,"RA_OF_ASC_NODE":269.2922,"ARG_OF_PERICENTER":138.8733,"MEAN_ANOMALY":221.2729,"EPHEMERIS_TYPE":0,"NORAD_CAT_ID":60471,"ELEMENT_SET_NO":999,"REV_AT_EPOCH":10508,"BSTAR":0.00032313537,"MEAN_MOTION_DOT":0.00011416,"MEAN_MOTION_DDOT":0},{"OBJECT_NAME":"LEMUR-2-STELLA","OBJECT_ID":"2024-149BT","EPOCH":"2026-07-06T03:23:33.910944","CLASSIFICATION_TYPE":"U","MEAN_MOTION":15.12243072,"ECCENTRICITY":0.00012469,"INCLINATION":97.6729,"RA_OF_ASC_NODE":269.6836,"ARG_OF_PERICENTER":106.9534,"MEAN_ANOMALY":253.1833,"EPHEMERIS_TYPE":0,"NORAD_CAT_ID":60533,"ELEMENT_SET_NO":999,"REV_AT_EPOCH":10336,"BSTAR":0.00064835405,"MEAN_MOTION_DOT":0.0001115,"MEAN_MOTION_DDOT":0},{"OBJECT_NAME":"LEMUR-2-MARHISYAM","OBJECT_ID":"2024-149BW","EPOCH":"2026-07-06T04:40:43.214304","CLASSIFICATION_TYPE":"U","MEAN_MOTION":15.11655906,"ECCENTRICITY":0.00028719,"INCLINATION":97.687,"RA_OF_ASC_NODE":270.2058,"ARG_OF_PERICENTER":83.2434,"MEAN_ANOMALY":276.9123,"EPHEMERIS_TYPE":0,"NORAD_CAT_ID":60536,"ELEMENT_SET_NO":999,"REV_AT_EPOCH":10335,"BSTAR":0.0006311825,"MEAN_MOTION_DOT":0.00010677,"MEAN_MOTION_DDOT":0},{"OBJECT_NAME":"LEMUR-2-AHMED-ASRAR","OBJECT_ID":"2024-149DN","EPOCH":"2026-07-05T19:31:46.233984","CLASSIFICATION_TYPE":"U","MEAN_MOTION":15.13163573,"ECCENTRICITY":0.00004153,"INCLINATION":97.6997,"RA_OF_ASC_NODE":271.9881,"ARG_OF_PERICENTER":275.0383,"MEAN_ANOMALY":85.08,"EPHEMERIS_TYPE":0,"NORAD_CAT_ID":60576,"ELEMENT_SET_NO":999,"REV_AT_EPOCH":10338,"BSTAR":0.00074247536,"MEAN_MOTION_DOT":0.00013114,"MEAN_MOTION_DDOT":0},{"OBJECT_NAME":"LEMUR-2-LLOYD","OBJECT_ID":"2024-149DP","EPOCH":"2026-07-06T04:49:08.886720","CLASSIFICATION_TYPE":"U","MEAN_MOTION":15.09635414,"ECCENTRICITY":0.0005043,"INCLINATION":97.6737,"RA_OF_ASC_NODE":268.3441,"ARG_OF_PERICENTER":93.4282,"MEAN_ANOMALY":266.7523,"EPHEMERIS_TYPE":0,"NORAD_CAT_ID":60577,"ELEMENT_SET_NO":999,"REV_AT_EPOCH":10326,"BSTAR":0.00060591696,"MEAN_MOTION_DOT":0.00009691,"MEAN_MOTION_DDOT":0},{"OBJECT_NAME":"LEMUR-2-SQUIRRELCOMM","OBJECT_ID":"2024-149DQ","EPOCH":"2026-07-06T04:13:11.978112","CLASSIFICATION_TYPE":"U","MEAN_MOTION":15.07381618,"ECCENTRICITY":0.0004922,"INCLINATION":97.6702,"RA_OF_ASC_NODE":268.0291,"ARG_OF_PERICENTER":359.7505,"MEAN_ANOMALY":0.3719,"EPHEMERIS_TYPE":0,"NORAD_CAT_ID":60578,"ELEMENT_SET_NO":999,"REV_AT_EPOCH":10326,"BSTAR":0.00048283645,"MEAN_MOTION_DOT":0.00007246,"MEAN_MOTION_DDOT":0},{"OBJECT_NAME":"LEMUR-2-SIERRINI","OBJECT_ID":"2024-149DR","EPOCH":"2026-07-06T03:44:39.861888","CLASSIFICATION_TYPE":"U","MEAN_MOTION":15.11383664,"ECCENTRICITY":0.00065975,"INCLINATION":97.6837,"RA_OF_ASC_NODE":269.8365,"ARG_OF_PERICENTER":113.4903,"MEAN_ANOMALY":246.702,"EPHEMERIS_TYPE":0,"NORAD_CAT_ID":60579,"ELEMENT_SET_NO":999,"REV_AT_EPOCH":10332,"BSTAR":0.00069851692,"MEAN_MOTION_DOT":0.0001174,"MEAN_MOTION_DDOT":0},{"OBJECT_NAME":"LEMUR-2-WILSON","OBJECT_ID":"2025-009CP","EPOCH":"2026-07-06T04:01:34.730112","CLASSIFICATION_TYPE":"U","MEAN_MOTION":14.95253729,"ECCENTRICITY":0.00026544,"INCLINATION":97.7019,"RA_OF_ASC_NODE":265.2997,"ARG_OF_PERICENTER":8.5969,"MEAN_ANOMALY":351.5297,"EPHEMERIS_TYPE":0,"NORAD_CAT_ID":62694,"ELEMENT_SET_NO":999,"REV_AT_EPOCH":8019,"BSTAR":0.00030950733,"MEAN_MOTION_DOT":0.00003349,"MEAN_MOTION_DDOT":0},{"OBJECT_NAME":"LEMUR-2-STAR-FOX","OBJECT_ID":"2025-009CR","EPOCH":"2026-07-06T04:54:40.885632","CLASSIFICATION_TYPE":"U","MEAN_MOTION":15.0277134,"ECCENTRICITY":0.0003531,"INCLINATION":97.6928,"RA_OF_ASC_NODE":268.6782,"ARG_OF_PERICENTER":71.774,"MEAN_ANOMALY":288.3869,"EPHEMERIS_TYPE":0,"NORAD_CAT_ID":62696,"ELEMENT_SET_NO":999,"REV_AT_EPOCH":8041,"BSTAR":0.00054906971,"MEAN_MOTION_DOT":0.00007286,"MEAN_MOTION_DDOT":0},{"OBJECT_NAME":"LEMUR-2-ARIANNA","OBJECT_ID":"2025-009CU","EPOCH":"2026-07-06T04:52:28.437024","CLASSIFICATION_TYPE":"U","MEAN_MOTION":15.02770802,"ECCENTRICITY":0.00038727,"INCLINATION":97.6866,"RA_OF_ASC_NODE":268.4362,"ARG_OF_PERICENTER":76.76,"MEAN_ANOMALY":283.4057,"EPHEMERIS_TYPE":0,"NORAD_CAT_ID":62699,"ELEMENT_SET_NO":999,"REV_AT_EPOCH":8041,"BSTAR":0.00053415395,"MEAN_MOTION_DOT":0.00007087,"MEAN_MOTION_DDOT":0},{"OBJECT_NAME":"LEMUR-2-ALISIA","OBJECT_ID":"2025-009DB","EPOCH":"2026-07-06T04:15:26.877888","CLASSIFICATION_TYPE":"U","MEAN_MOTION":15.03079135,"ECCENTRICITY":0.00033496,"INCLINATION":97.6949,"RA_OF_ASC_NODE":269.2183,"ARG_OF_PERICENTER":158.7297,"MEAN_ANOMALY":201.4068,"EPHEMERIS_TYPE":0,"NORAD_CAT_ID":62706,"ELEMENT_SET_NO":999,"REV_AT_EPOCH":10301,"BSTAR":0.00067551543,"MEAN_MOTION_DOT":0.00009054,"MEAN_MOTION_DDOT":0},{"OBJECT_NAME":"LEMUR-2-ROUNDTRIPPER","OBJECT_ID":"2025-009DG","EPOCH":"2026-07-06T04:32:00.256704","CLASSIFICATION_TYPE":"U","MEAN_MOTION":15.04126128,"ECCENTRICITY":0.00045159,"INCLINATION":97.7222,"RA_OF_ASC_NODE":269.8431,"ARG_OF_PERICENTER":85.1378,"MEAN_ANOMALY":275.0364,"EPHEMERIS_TYPE":0,"NORAD_CAT_ID":62711,"ELEMENT_SET_NO":999,"REV_AT_EPOCH":8048,"BSTAR":0.00069562887,"MEAN_MOTION_DOT":0.0000959,"MEAN_MOTION_DDOT":0},{"OBJECT_NAME":"LEMUR-2-MYNAMEISJEFF","OBJECT_ID":"2025-009DH","EPOCH":"2026-07-06T04:29:45.197952","CLASSIFICATION_TYPE":"U","MEAN_MOTION":15.04118145,"ECCENTRICITY":0.0003594,"INCLINATION":97.7273,"RA_OF_ASC_NODE":270.2338,"ARG_OF_PERICENTER":118.7243,"MEAN_ANOMALY":241.4344,"EPHEMERIS_TYPE":0,"NORAD_CAT_ID":62712,"ELEMENT_SET_NO":999,"REV_AT_EPOCH":8048,"BSTAR":0.00069930425,"MEAN_MOTION_DOT":0.00009639,"MEAN_MOTION_DDOT":0}]}
